{"type": "FeatureCollection", "features": [ {"type": "Feature", "properties": {"norad_id": 67000, "name": "2025-292H", "group": "last-30-days", "lat": 80.79530591844176, "lon": -55.99407089602376, "alt_km": 552.9123694026566, "timestamp": "2025-12-21T09:37:21.374804+00:00", "meta": {"OBJECT_NAME": "2025-292H", "OBJECT_ID": "2025-292H", "EPOCH": "2025-12-21T04:24:48.547008", "MEAN_MOTION": 15.04986187, "ECCENTRICITY": 0.0014315, "INCLINATION": 97.6573, "RA_OF_ASC_NODE": 67.6675, "ARG_OF_PERICENTER": 248.1678, "MEAN_ANOMALY": 111.8026, "EPHEMERIS_TYPE": 0, "CLASSIFICATION_TYPE": "U", "NORAD_CAT_ID": 67000, "ELEMENT_SET_NO": 999, "REV_AT_EPOCH": 153, "BSTAR": 0.00028366, "MEAN_MOTION_DOT": 3.97e-05, "MEAN_MOTION_DDOT": 0}, "tle": {"line1": "1 67000U 25292H   25355.18389522  .00003970  00000+0  28366-3 0  9997", "line2": "2 67000  97.6573  67.6675 0014315 248.1678 111.8026 15.04986187  1536"}}, "geometry": {"type": "Point", "coordinates": [-55.99407089602376, 80.79530591844176]}}, {"type": "Feature", "properties": {"norad_id": 67001, "name": "2025-292J", "group": "last-30-days", "lat": 69.76496484360311, "lon": 46.46900791700207, "alt_km": 556.3515011639656, "timestamp": "2025-12-21T09:37:21.374814+00:00", "meta": {"OBJECT_NAME": "2025-292J", "OBJECT_ID": "2025-292J", "EPOCH": "2025-12-20T22:07:55.321248", "MEAN_MOTION": 15.04382378, "ECCENTRICITY": 0.0014483, "INCLINATION": 97.6555, "RA_OF_ASC_NODE": 67.3957, "ARG_OF_PERICENTER": 238.1345, "MEAN_ANOMALY": 121.8472, "EPHEMERIS_TYPE": 0, "CLASSIFICATION_TYPE": "U", "NORAD_CAT_ID": 67001, "ELEMENT_SET_NO": 999, "REV_AT_EPOCH": 162, "BSTAR": 0.00024767, "MEAN_MOTION_DOT": 3.402e-05, "MEAN_MOTION_DDOT": 0}, "tle": {"line1": "1 67001U 25292J   25354.92216807  .00003402  00000+0  24767-3 0  9995", "line2": "2 67001  97.6555  67.3957 0014483 238.1345 121.8472 15.04382378  1621"}}, "geometry": {"type": "Point", "coordinates": [46.46900791700207, 69.76496484360311]}}, {"type": "Feature", "properties": {"norad_id": 67002, "name": "ZK-1A R/B", "group": "last-30-days", "lat": -25.050137367593234, "lon": 72.5243991952469, "alt_km": 258.76291788017716, "timestamp": "2025-12-21T09:37:21.374824+00:00", "meta": {"OBJECT_NAME": "ZK-1A R/B", "OBJECT_ID": "2025-292K", "EPOCH": "2025-12-20T22:55:52.404096", "MEAN_MOTION": 15.57136715, "ECCENTRICITY": 0.0210787, "INCLINATION": 97.7216, "RA_OF_ASC_NODE": 68.4058, "ARG_OF_PERICENTER": 335.6954, "MEAN_ANOMALY": 23.4467, "EPHEMERIS_TYPE": 0, "CLASSIFICATION_TYPE": "U", "NORAD_CAT_ID": 67002, "ELEMENT_SET_NO": 999, "REV_AT_EPOCH": 167, "BSTAR": 0.00063197, "MEAN_MOTION_DOT": 0.00132782, "MEAN_MOTION_DDOT": 6.8834e-06}, "tle": {"line1": "1 67002U 25292K   25354.95546764  .00132782  68834-5  63197-3 0  9996", "line2": "2 67002  97.7216  68.4058 0210787 335.6954  23.4467 15.57136715  1671"}}, "geometry": {"type": "Point", "coordinates": [72.5243991952469, -25.050137367593234]}}, {"type": "Feature", "properties": {"norad_id": 67003, "name": "STARLINK-35660", "group": "last-30-days", "lat": -43.21170858171348, "lon": -81.3631018112912, "alt_km": 308.2832354230213, "timestamp": "2025-12-21T09:37:21.374835+00:00", "meta": {"OBJECT_NAME": "STARLINK-35660", "OBJECT_ID": "2025-293A", "EPOCH": "2025-12-21T04:00:01.998720", "MEAN_MOTION": 15.8992716, "ECCENTRICITY": 0.0003986, "INCLINATION": 69.9937, "RA_OF_ASC_NODE": 299.3319, "ARG_OF_PERICENTER": 271.8383, "MEAN_ANOMALY": 141.2928, "EPHEMERIS_TYPE": 0, "CLASSIFICATION_TYPE": "U", "NORAD_CAT_ID": 67003, "ELEMENT_SET_NO": 999, "REV_AT_EPOCH": 153, "BSTAR": -0.0040565, "MEAN_MOTION_DOT": -0.01209677, "MEAN_MOTION_DDOT": 0.00042087}, "tle": {"line1": "1 67003U 25293A   25355.16668980 -.01209677  42087-3 -40565-2 0  9991", "line2": "2 67003  69.9937 299.3319 0003986 271.8383 141.2928 15.89927160  1539"}}, "geometry": {"type": "Point", "coordinates": [-81.3631018112912, -43.21170858171348]}}, {"type": "Feature", "properties": {"norad_id": 67004, "name": "STARLINK-35913", "group": "last-30-days", "lat": -41.231961657341, "lon": -79.97132886921489, "alt_km": 307.7334383750722, "timestamp": "2025-12-21T09:37:21.374847+00:00", "meta": {"OBJECT_NAME": "STARLINK-35913", "OBJECT_ID": "2025-293B", "EPOCH": "2025-12-21T04:00:01.998720", "MEAN_MOTION": 15.89749725, "ECCENTRICITY": 0.0004287, "INCLINATION": 69.9937, "RA_OF_ASC_NODE": 299.3293, "ARG_OF_PERICENTER": 271.9294, "MEAN_ANOMALY": 143.4576, "EPHEMERIS_TYPE": 0, "CLASSIFICATION_TYPE": "U", "NORAD_CAT_ID": 67004, "ELEMENT_SET_NO": 999, "REV_AT_EPOCH": 153, "BSTAR": -0.0019073, "MEAN_MOTION_DOT": -0.00566494, "MEAN_MOTION_DDOT": 0.00010317}, "tle": {"line1": "1 67004U 25293B   25355.16668980 -.00566494  10317-3 -19073-2 0  9995", "line2": "2 67004  69.9937 299.3293 0004287 271.9294 143.4576 15.89749725  1530"}}, "geometry": {"type": "Point", "coordinates": [-79.97132886921489, -41.231961657341]}}, {"type": "Feature", "properties": {"norad_id": 67005, "name": "STARLINK-36148", "group": "last-30-days", "lat": -39.114405196831555, "lon": -78.58407037910325, "alt_km": 307.5805534546671, "timestamp": "2025-12-21T09:37:21.374860+00:00", "meta": {"OBJECT_NAME": "STARLINK-36148", "OBJECT_ID": "2025-293C", "EPOCH": "2025-12-21T04:00:01.998720", "MEAN_MOTION": 15.89780851, "ECCENTRICITY": 0.0004324, "INCLINATION": 69.9939, "RA_OF_ASC_NODE": 299.3269, "ARG_OF_PERICENTER": 273.1586, "MEAN_ANOMALY": 144.574, "EPHEMERIS_TYPE": 0, "CLASSIFICATION_TYPE": "U", "NORAD_CAT_ID": 67005, "ELEMENT_SET_NO": 999, "REV_AT_EPOCH": 153, "BSTAR": -0.001915, "MEAN_MOTION_DOT": -0.00569658, "MEAN_MOTION_DDOT": 0.00010427}, "tle": {"line1": "1 67005U 25293C   25355.16668980 -.00569658  10427-3 -19150-2 0  9999", "line2": "2 67005  69.9939 299.3269 0004324 273.1586 144.5740 15.89780851  1536"}}, "geometry": {"type": "Point", "coordinates": [-78.58407037910325, -39.114405196831555]}}, {"type": "Feature", "properties": {"norad_id": 67006, "name": "STARLINK-36156", "group": "last-30-days", "lat": -34.066304897968585, "lon": -75.62157755696771, "alt_km": 307.8845009646875, "timestamp": "2025-12-21T09:37:21.374870+00:00", "meta": {"OBJECT_NAME": "STARLINK-36156", "OBJECT_ID": "2025-293D", "EPOCH": "2025-12-21T04:00:01.998720", "MEAN_MOTION": 15.90048483, "ECCENTRICITY": 0.0003969, "INCLINATION": 69.9939, "RA_OF_ASC_NODE": 299.3197, "ARG_OF_PERICENTER": 272.1812, "MEAN_ANOMALY": 151.0445, "EPHEMERIS_TYPE": 0, "CLASSIFICATION_TYPE": "U", "NORAD_CAT_ID": 67006, "ELEMENT_SET_NO": 999, "REV_AT_EPOCH": 153, "BSTAR": -0.0041072, "MEAN_MOTION_DOT": -0.01232123, "MEAN_MOTION_DDOT": 0.00043591}, "tle": {"line1": "1 67006U 25293D   25355.16668980 -.01232123  43591-3 -41072-2 0  9991", "line2": "2 67006  69.9939 299.3197 0003969 272.1812 151.0445 15.90048483  1537"}}, "geometry": {"type": "Point", "coordinates": [-75.62157755696771, -34.066304897968585]}}, {"type": "Feature", "properties": {"norad_id": 67007, "name": "STARLINK-36123", "group": "last-30-days", "lat": -36.36542448045518, "lon": -76.9180324071725, "alt_km": 307.50927463983135, "timestamp": "2025-12-21T09:37:21.374883+00:00", "meta": {"OBJECT_NAME": "STARLINK-36123", "OBJECT_ID": "2025-293E", "EPOCH": "2025-12-21T04:00:01.998720", "MEAN_MOTION": 15.89804078, "ECCENTRICITY": 0.0004329, "INCLINATION": 69.9936, "RA_OF_ASC_NODE": 299.3227, "ARG_OF_PERICENTER": 272.2658, "MEAN_ANOMALY": 148.4961, "EPHEMERIS_TYPE": 0, "CLASSIFICATION_TYPE": "U", "NORAD_CAT_ID": 67007, "ELEMENT_SET_NO": 999, "REV_AT_EPOCH": 153, "BSTAR": -0.0018696, "MEAN_MOTION_DOT": -0.00556883, "MEAN_MOTION_DDOT": 0.00010002}, "tle": {"line1": "1 67007U 25293E   25355.16668980 -.00556883  10002-3 -18696-2 0  9990", "line2": "2 67007  69.9936 299.3227 0004329 272.2658 148.4961 15.89804078  1530"}}, "geometry": {"type": "Point", "coordinates": [-76.9180324071725, -36.36542448045518]}}, {"type": "Feature", "properties": {"norad_id": 67008, "name": "STARLINK-36163", "group": "last-30-days", "lat": -31.041434979528084, "lon": -74.02948881955419, "alt_km": 307.3196046526691, "timestamp": "2025-12-21T09:37:21.374893+00:00", "meta": {"OBJECT_NAME": "STARLINK-36163", "OBJECT_ID": "2025-293F", "EPOCH": "2025-12-21T04:00:01.998720", "MEAN_MOTION": 15.89876327, "ECCENTRICITY": 0.0004292, "INCLINATION": 69.9938, "RA_OF_ASC_NODE": 299.3158, "ARG_OF_PERICENTER": 272.1817, "MEAN_ANOMALY": 154.3748, "EPHEMERIS_TYPE": 0, "CLASSIFICATION_TYPE": "U", "NORAD_CAT_ID": 67008, "ELEMENT_SET_NO": 999, "REV_AT_EPOCH": 153, "BSTAR": -0.0020116, "MEAN_MOTION_DOT": -0.0060112, "MEAN_MOTION_DDOT": 0.00011527}, "tle": {"line1": "1 67008U 25293F   25355.16668980 -.00601120  11527-3 -20116-2 0  9999", "line2": "2 67008  69.9938 299.3158 0004292 272.1817 154.3748 15.89876327  1536"}}, "geometry": {"type": "Point", "coordinates": [-74.02948881955419, -31.041434979528084]}}, {"type": "Feature", "properties": {"norad_id": 67009, "name": "STARLINK-36118", "group": "last-30-days", "lat": -28.53575038081485, "lon": -72.7928713636241, "alt_km": 307.6175194674652, "timestamp": "2025-12-21T09:37:21.374903+00:00", "meta": {"OBJECT_NAME": "STARLINK-36118", "OBJECT_ID": "2025-293G", "EPOCH": "2025-12-21T04:00:01.998720", "MEAN_MOTION": 15.90111606, "ECCENTRICITY": 0.0003975, "INCLINATION": 69.9937, "RA_OF_ASC_NODE": 299.3127, "ARG_OF_PERICENTER": 272.1891, "MEAN_ANOMALY": 157.0279, "EPHEMERIS_TYPE": 0, "CLASSIFICATION_TYPE": "U", "NORAD_CAT_ID": 67009, "ELEMENT_SET_NO": 999, "REV_AT_EPOCH": 147, "BSTAR": -0.0041548, "MEAN_MOTION_DOT": -0.01250191, "MEAN_MOTION_DDOT": 0.00044806}, "tle": {"line1": "1 67009U 25293G   25355.16668980 -.01250191  44806-3 -41548-2 0  9997", "line2": "2 67009  69.9937 299.3127 0003975 272.1891 157.0279 15.90111606  1477"}}, "geometry": {"type": "Point", "coordinates": [-72.7928713636241, -28.53575038081485]}}]}